{
  "type": "FeatureCollection",
  "features": [
    {
      "type": "Feature",
      "properties": {
        "norad_id": 66561,
        "name": "STARLINK-35305",
        "group": "last-30-days",
        "lat": -42.444258039986906,
        "lon": -10.563207598447796,
        "alt_km": 416.9649168769756,
        "timestamp": "2025-12-17T23:38:05.623861+00:00",
        "meta_object_name": "STARLINK-35305",
        "meta_object_id": "2025-268E",
        "meta_epoch": "2025-12-17T08:35:54.000960",
        "meta_mean_motion": 15.50655998,
        "meta_eccentricity": 0.00014448,
        "meta_inclination": 43.0004,
        "meta_ra_of_asc_node": 94.1664,
        "meta_arg_of_pericenter": 279.4908,
        "meta_mean_anomaly": 80.5789,
        "meta_ephemeris_type": 0,
        "meta_classification_type": "U",
        "meta_norad_cat_id": 66561,
        "meta_element_set_no": 999,
        "meta_rev_at_epoch": 534,
        "meta_bstar": 0.0013229264,
        "meta_mean_motion_dot": 0.00078263,
        "meta_mean_motion_ddot": 0,
        "tle_line1": "1 66561U 25268E   25351.35826390  .00078263  00000+0  13229-2 0  9993",
        "tle_line2": "2 66561  43.0004  94.1664 0001444 279.4908  80.5789 15.50655998  5341"
      },
      "geometry": {
        "type": "Point",
        "coordinates": [
          -10.563207598447796,
          -42.444258039986906
        ]
      }
    },
    {
      "type": "Feature",
      "properties": {
        "norad_id": 66562,
        "name": "STARLINK-35579",
        "group": "last-30-days",
        "lat": -42.160982557330655,
        "lon": -13.14991557565857,
        "alt_km": 416.1889824091868,
        "timestamp": "2025-12-17T23:38:05.623872+00:00",
        "meta_object_name": "STARLINK-35579",
        "meta_object_id": "2025-268F",
        "meta_epoch": "2025-12-17T08:36:24.328224",
        "meta_mean_motion": 15.50648416,
        "meta_eccentricity": 0.00023462,
        "meta_inclination": 42.9996,
        "meta_ra_of_asc_node": 94.1673,
        "meta_arg_of_pericenter": 253.6447,
        "meta_mean_anomaly": 106.4155,
        "meta_ephemeris_type": 0,
        "meta_classification_type": "U",
        "meta_norad_cat_id": 66562,
        "meta_element_set_no": 999,
        "meta_rev_at_epoch": 534,
        "meta_bstar": 0.0018311606,
        "meta_mean_motion_dot": 0.00108863,
        "meta_mean_motion_ddot": 0,
        "tle_line1": "1 66562U 25268F   25351.35861491  .00108863  00000+0  18312-2 0  9993",
        "tle_line2": "2 66562  42.9996  94.1673 0002346 253.6447 106.4155 15.50648416  5346"
      },
      "geometry": {
        "type": "Point",
        "coordinates": [
          -13.14991557565857,
          -42.160982557330655
        ]
      }
    },
    {
      "type": "Feature",
      "properties": {
        "norad_id": 66563,
        "name": "STARLINK-35437",
        "group": "last-30-days",
        "lat": -42.654832609679914,
        "lon": -8.134144992208709,
        "alt_km": 416.6771910218258,
        "timestamp": "2025-12-17T23:38:05.623906+00:00",
        "meta_object_name": "STARLINK-35437",
        "meta_object_id": "2025-268G",
        "meta_epoch": "2025-12-17T08:35:24.454752",
        "meta_mean_motion": 15.50619778,
        "meta_eccentricity": 0.00020809,
        "meta_inclination": 43.0005,
        "meta_ra_of_asc_node": 94.1634,
        "meta_arg_of_pericenter": 277.1419,
        "meta_mean_anomaly": 82.9205,
        "meta_ephemeris_type": 0,
        "meta_classification_type": "U",
        "meta_norad_cat_id": 66563,
        "meta_element_set_no": 999,
        "meta_rev_at_epoch": 534,
        "meta_bstar": 0.0011699718,
        "meta_mean_motion_dot": 0.00069005,
        "meta_mean_motion_ddot": 0,
        "tle_line1": "1 66563U 25268G   25351.35792193  .00069005  00000+0  11700-2 0  9994",
        "tle_line2": "2 66563  43.0005  94.1634 0002080 277.1419  82.9205 15.50619778  5345"
      },
      "geometry": {
        "type": "Point",
        "coordinates": [
          -8.134144992208709,
          -42.654832609679914
        ]
      }
    },
    {
      "type": "Feature",
      "properties": {
        "norad_id": 66564,
        "name": "STARLINK-35358",
        "group": "last-30-days",
        "lat": -42.84371492318144,
        "lon": -5.1165289283291076,
        "alt_km": 416.13524310860885,
        "timestamp": "2025-12-17T23:38:05.623918+00:00",
        "meta_object_name": "STARLINK-35358",
        "meta_object_id": "2025-268H",
        "meta_epoch": "2025-12-16T14:01:49.179936",
        "meta_mean_motion": 15.50594418,
        "meta_eccentricity": 0.00027116,
        "meta_inclination": 43.001,
        "meta_ra_of_asc_node": 98.6796,
        "meta_arg_of_pericenter": 274.7611,
        "meta_mean_anomaly": 85.2939,
        "meta_ephemeris_type": 0,
        "meta_classification_type": "U",
        "meta_norad_cat_id": 66564,
        "meta_element_set_no": 999,
        "meta_rev_at_epoch": 522,
        "meta_bstar": 0.0010025673,
        "meta_mean_motion_dot": 0.00058955,
        "meta_mean_motion_ddot": 0,
        "tle_line1": "1 66564U 25268H   25350.58459699  .00058955  00000+0  10026-2 0  9992",
        "tle_line2": "2 66564  43.0010  98.6796 0002711 274.7611  85.2939 15.50594418  5228"
      },
      "geometry": {
        "type": "Point",
        "coordinates": [
          -5.1165289283291076,
          -42.84371492318144
        ]
      }
    },
    {
      "type": "Feature",
      "properties": {
        "norad_id": 66565,
        "name": "STARLINK-35893",
        "group": "last-30-days",
        "lat": -42.921726505792854,
        "lon": -3.0408207528207964,
        "alt_km": 417.4384162938286,
        "timestamp": "2025-12-17T23:38:05.623930+00:00",
        "meta_object_name": "STARLINK-35893",
        "meta_object_id": "2025-268J",
        "meta_epoch": "2025-12-17T14:45:27.364320",
        "meta_mean_motion": 15.50645762,
        "meta_eccentricity": 0.00010231,
        "meta_inclination": 42.9963,
        "meta_ra_of_asc_node": 92.6492,
        "meta_arg_of_pericenter": 296.3294,
        "meta_mean_anomaly": 63.7461,
        "meta_ephemeris_type": 0,
        "meta_classification_type": "U",
        "meta_norad_cat_id": 66565,
        "meta_element_set_no": 999,
        "meta_rev_at_epoch": 538,
        "meta_bstar": 0.0013537546,
        "meta_mean_motion_dot": 0.00080083,
        "meta_mean_motion_ddot": 0,
        "tle_line1": "1 66565U 25268J   25351.61490005  .00080083  00000+0  13538-2 0  9992",
        "tle_line2": "2 66565  42.9963  92.6492 0001023 296.3294  63.7461 15.50645762  5380"
      },
      "geometry": {
        "type": "Point",
        "coordinates": [
          -3.0408207528207964,
          -42.921726505792854
        ]
      }
    },
    {
      "type": "Feature",
      "properties": {
        "norad_id": 66566,
        "name": "STARLINK-35871",
        "group": "last-30-days",
        "lat": -42.98001683016015,
        "lon": -0.4330622571502525,
        "alt_km": 413.4864428665878,
        "timestamp": "2025-12-17T23:38:05.623940+00:00",
        "meta_object_name": "STARLINK-35871",
        "meta_object_id": "2025-268K",
        "meta_epoch": "2025-12-17T07:01:10.187328",
        "meta_mean_motion": 15.50616432,
        "meta_eccentricity": 0.00072002,
        "meta_inclination": 43.0041,
        "meta_ra_of_asc_node": 94.5317,
        "meta_arg_of_pericenter": 285.5743,
        "meta_mean_anomaly": 74.4322,
        "meta_ephemeris_type": 0,
        "meta_classification_type": "U",
        "meta_norad_cat_id": 66566,
        "meta_element_set_no": 999,
        "meta_rev_at_epoch": 533,
        "meta_bstar": 0.0010352337,
        "meta_mean_motion_dot": 0.00061001,
        "meta_mean_motion_ddot": 0,
        "tle_line1": "1 66566U 25268K   25351.29247902  .00061001  00000+0  10352-2 0  9993",
        "tle_line2": "2 66566  43.0041  94.5317 0007200 285.5743  74.4322 15.50616432  5331"
      },
      "geometry": {
        "type": "Point",
        "coordinates": [
          -0.4330622571502525,
          -42.98001683016015
        ]
      }
    },
    {
      "type": "Feature",
      "properties": {
        "norad_id": 66567,
        "name": "STARLINK-35825",
        "group": "last-30-days",
        "lat": -42.96501393866621,
        "lon": 2.3162476950056754,
        "alt_km": 416.96820986024886,
        "timestamp": "2025-12-17T23:38:05.623950+00:00",
        "meta_object_name": "STARLINK-35825",
        "meta_object_id": "2025-268L",
        "meta_epoch": "2025-12-17T08:33:25.761024",
        "meta_mean_motion": 15.50597076,
        "meta_eccentricity": 0.00014681,
        "meta_inclination": 43.0002,
        "meta_ra_of_asc_node": 94.1522,
        "meta_arg_of_pericenter": 268.8504,
        "meta_mean_anomaly": 91.2188,
        "meta_ephemeris_type": 0,
        "meta_classification_type": "U",
        "meta_norad_cat_id": 66567,
        "meta_element_set_no": 999,
        "meta_rev_at_epoch": 534,
        "meta_bstar": 0.001814903,
        "meta_mean_motion_dot": 0.00107675,
        "meta_mean_motion_ddot": 0,
        "tle_line1": "1 66567U 25268L   25351.35654816  .00107675  00000+0  18149-2 0  9997",
        "tle_line2": "2 66567  43.0002  94.1522 0001468 268.8504  91.2188 15.50597076  5342"
      },
      "geometry": {
        "type": "Point",
        "coordinates": [
          2.3162476950056754,
          -42.96501393866621
        ]
      }
    }
  ]
}